{
  "type": "FeatureCollection",
  "features": [
    {
      "type": "Feature",
      "properties": {
        "norad_id": 34350,
        "name": "IRIDIUM 33 DEB",
        "group": "iridium-33-debris",
        "lat": 85.38068696277337,
        "lon": 127.02475483952942,
        "alt_km": 717.6621985508336,
        "timestamp": "2025-12-19T22:41:52.780703+00:00",
        "meta_object_name": "IRIDIUM 33 DEB",
        "meta_object_id": "1997-051ES",
        "meta_epoch": "2025-12-19T12:52:33.855744",
        "meta_mean_motion": 14.4540166,
        "meta_eccentricity": 0.0023302,
        "meta_inclination": 86.3271,
        "meta_ra_of_asc_node": 359.8577,
        "meta_arg_of_pericenter": 114.287,
        "meta_mean_anomaly": 10.4643,
        "meta_ephemeris_type": 0,
        "meta_classification_type": "U",
        "meta_norad_cat_id": 34350,
        "meta_element_set_no": 999,
        "meta_rev_at_epoch": 88391,
        "meta_bstar": 0.00023595,
        "meta_mean_motion_dot": 8.53e-06,
        "meta_mean_motion_ddot": 0,
        "tle_line1": "1 34350U 97051ES  25353.53650296  .00000853  00000+0  23595-3 0  9993",
        "tle_line2": "2 34350  86.3271 359.8577 0023302 114.2870  10.4643 14.45401660883919"
      },
      "geometry": {
        "type": "Point",
        "coordinates": [
          127.02475483952942,
          85.38068696277337
        ]
      }
    },
    {
      "type": "Feature",
      "properties": {
        "norad_id": 34366,
        "name": "IRIDIUM 33 DEB",
        "group": "iridium-33-debris",
        "lat": -73.5824001875546,
        "lon": 33.73697194010976,
        "alt_km": 735.605276858968,
        "timestamp": "2025-12-19T22:41:52.780713+00:00",
        "meta_object_name": "IRIDIUM 33 DEB",
        "meta_object_id": "1997-051FJ",
        "meta_epoch": "2025-12-18T14:34:32.858400",
        "meta_mean_motion": 14.54103617,
        "meta_eccentricity": 0.00228949,
        "meta_inclination": 86.3697,
        "meta_ra_of_asc_node": 46.7619,
        "meta_arg_of_pericenter": 121.3306,
        "meta_mean_anomaly": 2.8167,
        "meta_ephemeris_type": 0,
        "meta_classification_type": "U",
        "meta_norad_cat_id": 34366,
        "meta_element_set_no": 999,
        "meta_rev_at_epoch": 88267,
        "meta_bstar": 0.00070491505,
        "meta_mean_motion_dot": 3.008e-05,
        "meta_mean_motion_ddot": 0,
        "tle_line1": "1 34366U 97051FJ  25352.60732475  .00003008  00000+0  70492-3 0  9990",
        "tle_line2": "2 34366  86.3697  46.7619 0022894 121.3306   2.8167 14.54103617882674"
      },
      "geometry": {
        "type": "Point",
        "coordinates": [
          33.73697194010976,
          -73.5824001875546
        ]
      }
    },
    {
      "type": "Feature",
      "properties": {
        "norad_id": 34375,
        "name": "IRIDIUM 33 DEB",
        "group": "iridium-33-debris",
        "lat": -14.838760154285145,
        "lon": 178.84827965207268,
        "alt_km": 872.401004546774,
        "timestamp": "2025-12-19T22:41:52.780724+00:00",
        "meta_object_name": "IRIDIUM 33 DEB",
        "meta_object_id": "1997-051FT",
        "meta_epoch": "2025-12-19T12:41:12.374016",
        "meta_mean_motion": 14.1800419,
        "meta_eccentricity": 0.0103655,
        "meta_inclination": 86.432,
        "meta_ra_of_asc_node": 179.9636,
        "meta_arg_of_pericenter": 105.4895,
        "meta_mean_anomaly": 272.7356,
        "meta_ephemeris_type": 0,
        "meta_classification_type": "U",
        "meta_norad_cat_id": 34375,
        "meta_element_set_no": 999,
        "meta_rev_at_epoch": 86808,
        "meta_bstar": 0.00031892,
        "meta_mean_motion_dot": 7.08e-06,
        "meta_mean_motion_ddot": 0,
        "tle_line1": "1 34375U 97051FT  25353.52861544  .00000708  00000+0  31892-3 0  9997",
        "tle_line2": "2 34375  86.4320 179.9636 0103655 105.4895 272.7356 14.18004190868080"
      },
      "geometry": {
        "type": "Point",
        "coordinates": [
          178.84827965207268,
          -14.838760154285145
        ]
      }
    },
    {
      "type": "Feature",
      "properties": {
        "norad_id": 34376,
        "name": "IRIDIUM 33 DEB",
        "group": "iridium-33-debris",
        "lat": 73.74513912789754,
        "lon": 16.13119232040573,
        "alt_km": 670.3864785338619,
        "timestamp": "2025-12-19T22:41:52.780735+00:00",
        "meta_object_name": "IRIDIUM 33 DEB",
        "meta_object_id": "1997-051FU",
        "meta_epoch": "2025-12-19T10:51:58.536576",
        "meta_mean_motion": 14.62653833,
        "meta_eccentricity": 0.0027979,
        "meta_inclination": 86.2977,
        "meta_ra_of_asc_node": 3.5217,
        "meta_arg_of_pericenter": 144.4882,
        "meta_mean_anomaly": 215.8199,
        "meta_ephemeris_type": 0,
        "meta_classification_type": "U",
        "meta_norad_cat_id": 34376,
        "meta_element_set_no": 999,
        "meta_rev_at_epoch": 88105,
        "meta_bstar": 0.00096172,
        "meta_mean_motion_dot": 4.94e-05,
        "meta_mean_motion_ddot": 0,
        "tle_line1": "1 34376U 97051FU  25353.45276084  .00004940  00000+0  96172-3 0  9993",
        "tle_line2": "2 34376  86.2977   3.5217 0027979 144.4882 215.8199 14.62653833881055"
      },
      "geometry": {
        "type": "Point",
        "coordinates": [
          16.13119232040573,
          73.74513912789754
        ]
      }
    },
    {
      "type": "Feature",
      "properties": {
        "norad_id": 34486,
        "name": "IRIDIUM 33 DEB",
        "group": "iridium-33-debris",
        "lat": 74.33868437793024,
        "lon": 21.700993428551445,
        "alt_km": 562.6890137053624,
        "timestamp": "2025-12-19T22:41:52.780745+00:00",
        "meta_object_name": "IRIDIUM 33 DEB",
        "meta_object_id": "1997-051GB",
        "meta_epoch": "2025-12-19T11:48:44.838432",
        "meta_mean_motion": 14.96085447,
        "meta_eccentricity": 0.0013897,
        "meta_inclination": 86.393,
        "meta_ra_of_asc_node": 8.9076,
        "meta_arg_of_pericenter": 92.9331,
        "meta_mean_anomaly": 60.6575,
        "meta_ephemeris_type": 0,
        "meta_classification_type": "U",
        "meta_norad_cat_id": 34486,
        "meta_element_set_no": 999,
        "meta_rev_at_epoch": 89087,
        "meta_bstar": 0.0015014,
        "meta_mean_motion_dot": 0.00016952,
        "meta_mean_motion_ddot": 0,
        "tle_line1": "1 34486U 97051GB  25353.49218563  .00016952  00000+0  15014-2 0  9998",
        "tle_line2": "2 34486  86.3930   8.9076 0013897  92.9331  60.6575 14.96085447890870"
      },
      "geometry": {
        "type": "Point",
        "coordinates": [
          21.700993428551445,
          74.33868437793024
        ]
      }
    },
    {
      "type": "Feature",
      "properties": {
        "norad_id": 34487,
        "name": "IRIDIUM 33 DEB",
        "group": "iridium-33-debris",
        "lat": 15.58647818703636,
        "lon": -171.7473212943796,
        "alt_km": 736.348789723902,
        "timestamp": "2025-12-19T22:41:52.780755+00:00",
        "meta_object_name": "IRIDIUM 33 DEB",
        "meta_object_id": "1997-051GC",
        "meta_epoch": "2025-12-18T07:45:56.041056",
        "meta_mean_motion": 14.43223269,
        "meta_eccentricity": 0.00331222,
        "meta_inclination": 86.3431,
        "meta_ra_of_asc_node": 9.9731,
        "meta_arg_of_pericenter": 110.9986,
        "meta_mean_anomaly": 270.0816,
        "meta_ephemeris_type": 0,
        "meta_classification_type": "U",
        "meta_norad_cat_id": 34487,
        "meta_element_set_no": 999,
        "meta_rev_at_epoch": 88329,
        "meta_bstar": 0.00015301486,
        "meta_mean_motion_dot": 5.38e-06,
        "meta_mean_motion_ddot": 0,
        "tle_line1": "1 34487U 97051GC  25352.32356529  .00000538  00000+0  15301-3 0  9998",
        "tle_line2": "2 34487  86.3431   9.9731 0033122 110.9986 270.0816 14.43223269883297"
      },
      "geometry": {
        "type": "Point",
        "coordinates": [
          -171.7473212943796,
          15.58647818703636
        ]
      }
    },
    {
      "type": "Feature",
      "properties": {
        "norad_id": 34488,
        "name": "IRIDIUM 33 DEB",
        "group": "iridium-33-debris",
        "lat": -48.088398660348645,
        "lon": 126.34554151127635,
        "alt_km": 487.18748995129044,
        "timestamp": "2025-12-19T22:41:52.780766+00:00",
        "meta_object_name": "IRIDIUM 33 DEB",
        "meta_object_id": "1997-051GD",
        "meta_epoch": "2025-12-18T20:36:21.699936",
        "meta_mean_motion": 15.30898743,
        "meta_eccentricity": 0.00115528,
        "meta_inclination": 86.3236,
        "meta_ra_of_asc_node": 302.7776,
        "meta_arg_of_pericenter": 41.1127,
        "meta_mean_anomaly": 319.099,
        "meta_ephemeris_type": 0,
        "meta_classification_type": "U",
        "meta_norad_cat_id": 34488,
        "meta_element_set_no": 999,
        "meta_rev_at_epoch": 89333,
        "meta_bstar": 0.0035214405,
        "meta_mean_motion_dot": 0.0010661,
        "meta_mean_motion_ddot": 0,
        "tle_line1": "1 34488U 97051GD  25352.85858449  .00106610  00000+0  35214-2 0  9997",
        "tle_line2": "2 34488  86.3236 302.7776 0011552  41.1127 319.0990 15.30898743893334"
      },
      "geometry": {
        "type": "Point",
        "coordinates": [
          126.34554151127635,
          -48.088398660348645
        ]
      }
    }
  ]
}